$$SOE
2461288.500000000, A.D. 2026-Sep-05 00:00:00.0000, 2.173571907762753E+08, 3.422647996589189E+08, 1.106090032863864E+07,
2461295.500000000, A.D. 2026-Sep-12 00:00:00.0000, 2.055545988274248E+08, 3.431965465696859E+08, 1.128006073148336E+07,
2461302.500000000, A.D. 2026-Sep-19 00:00:00.0000, 1.935963343373820E+08, 3.438683152174537E+08, 1.149067512600796E+07,
2461309.500000000, A.D. 2026-Sep-26 00:00:00.0000, 1.814853363891958E+08, 3.442687258744702E+08, 1.169222080666630E+07,
2461316.500000000, A.D. 2026-Oct-03 00:00:00.0000, 1.692250813773203E+08, 3.443859248175305E+08, 1.188414694303514E+07,
2461323.500000000, A.D. 2026-Oct-10 00:00:00.0000, 1.568196436002054E+08, 3.442075773269948E+08, 1.206587336397028E+07,
2461330.500000000, A.D. 2026-Oct-17 00:00:00.0000, 1.442737616966516E+08, 3.437208640081286E+08, 1.223678939105684E+07,
2461337.500000000, A.D. 2026-Oct-24 00:00:00.0000, 1.315929113107847E+08, 3.429124813014322E+08, 1.239625274928868E+07,
2461344.500000000, A.D. 2026-Oct-31 00:00:00.0000, 1.187833843998565E+08, 3.417686471639081E+08, 1.254358857996739E+07,
2461351.500000000, A.D. 2026-Nov-07 00:00:00.0000, 1.058523757679937E+08, 3.402751132235829E+08, 1.267808857901748E+07,
2461358.500000000, A.D. 2026-Nov-14 00:00:00.0000, 9.280807716729672E+07, 3.384171857221259E+08, 1.279901037293899E+07,
2461365.500000000, A.D. 2026-Nov-21 00:00:00.0000, 7.965977715032327E+07, 3.361797575642947E+08, 1.290557742294945E+07,
2461372.500000000, A.D. 2026-Nov-28 00:00:00.0000, 6.641796546335399E+07, 3.335473503179066E+08, 1.299697938413374E+07,
2461379.500000000, A.D. 2026-Dec-05 00:00:00.0000, 5.309444511201944E+07, 3.305041675999703E+08, 1.307237262991816E+07,
2461386.500000000, A.D. 2026-Dec-12 00:00:00.0000, 3.970245143469600E+07, 3.270341652861190E+08, 1.313088129127958E+07,
2461393.500000000, A.D. 2026-Dec-19 00:00:00.0000, 2.625677502498677E+07, 3.231211410815648E+08, 1.317159911036405E+07,
2461400.500000000, A.D. 2026-Dec-26 00:00:00.0000, 1.277388654480626E+07, 3.187488452937326E+08, 1.319359219293195E+07,
2461407.500000000, A.D. 2027-Jan-02 00:00:00.0000, -7.279387662900676E+05, 3.139011154303367E+08, 1.319590277499838E+07,
2461414.500000000, A.D. 2027-Jan-09 00:00:00.0000, -1.422850001699161E+07, 3.085620374549599E+08, 1.317755416186975E+07,
2461421.500000000, A.D. 2027-Jan-16 00:00:00.0000, -2.770555713998961E+07, 3.027161363701404E+08, 1.313755701145396E+07,
2461428.500000000, A.D. 2027-Jan-23 00:00:00.0000, -4.113473002946075E+07, 2.963485983999671E+08, 1.307491712973645E+07,
2461435.500000000, A.D. 2027-Jan-30 00:00:00.0000, -5.448941639290408E+07, 2.894455264247027E+08, 1.298864492398962E+07,
2461442.500000000, A.D. 2027-Feb-06 00:00:00.0000, -6.774073524034092E+07, 2.819942297687050E+08, 1.287776664707905E+07,
2461449.500000000, A.D. 2027-Feb-13 00:00:00.0000, -8.085750487427923E+07, 2.739835489982894E+08, 1.274133767961819E+07,
2461456.500000000, A.D. 2027-Feb-20 00:00:00.0000, -9.380626703030597E+07, 2.654042126142224E+08, 1.257845804535897E+07,
2461463.500000000, A.D. 2027-Feb-27 00:00:00.0000, -1.065513656289582E+08, 2.562492178514467E+08, 1.238828972722553E+07,
2461470.500000000, A.D. 2027-Mar-06 00:00:00.0000, -1.190550870926164E+08, 2.465142302623430E+08, 1.217007551346752E+07,
2461477.500000000, A.D. 2027-Mar-13 00:00:00.0000, -1.312778732090299E+08, 2.361979938860298E+08, 1.192315939996566E+07,
2461484.500000000, A.D. 2027-Mar-20 00:00:00.0000, -1.431786155616632E+08, 2.253027376746598E+08, 1.164700813634451E+07,
2461491.500000000, A.D. 2027-Mar-27 00:00:00.0000, -1.547150366899336E+08, 2.138345609291477E+08, 1.134123323273917E+07,
2461498.500000000, A.D. 2027-Apr-03 00:00:00.0000, -1.658441594594190E+08, 2.018037781943558E+08, 1.100561261110722E+07,
2461505.500000000, A.D. 2027-Apr-10 00:00:00.0000, -1.765228614359066E+08, 1.892252021381799E+08, 1.064011094616958E+07,
2461512.500000000, A.D. 2027-Apr-17 00:00:00.0000, -1.867085053003136E+08, 1.761183421699214E+08, 1.024489762246851E+07,
2461519.500000000, A.D. 2027-Apr-24 00:00:00.0000, -1.963596298870888E+08, 1.625074974722072E+08, 9.820361167971298E+06,
2461526.500000000, A.D. 2027-May-01 00:00:00.0000, -2.054366797705711E+08, 1.484217261978138E+08, 9.367119039200336E+06,
2461533.500000000, A.D. 2027-May-08 00:00:00.0000, -2.139027455571079E+08, 1.338946784294915E+08, 8.886021818740264E+06,
2461540.500000000, A.D. 2027-May-15 00:00:00.0000, -2.217242845626882E+08, 1.189642878106724E+08, 8.378151301244810E+06,
2461547.500000000, A.D. 2027-May-22 00:00:00.0000, -2.288717895610518E+08, 1.036723218194572E+08, 7.844811989522189E+06,
2461554.500000000, A.D. 2027-May-29 00:00:00.0000, -2.353203690394176E+08, 8.806380110333613E+07, 7.287515565003980E+06,
2461561.500000000, A.D. 2027-Jun-05 00:00:00.0000, -2.410502085106080E+08, 7.218631189343786E+07, 6.707958936543252E+06,
2461568.500000000, A.D. 2027-Jun-12 00:00:00.0000, -2.460468918164606E+08, 5.608924048889936E+07, 6.107996935797989E+06,
2461575.500000000, A.D. 2027-Jun-19 00:00:00.0000, -2.503015683490917E+08, 3.982296286498674E+07, 5.489610819501987E+06,
2461582.500000000, A.D. 2027-Jun-26 00:00:00.0000, -2.538109613891883E+08, 2.343802561296897E+07, 4.854873994468260E+06,
2461589.500000000, A.D. 2027-Jul-03 00:00:00.0000, -2.565772229445542E+08, 6.984353999704191E+06, 4.205916541770250E+06,
2461596.500000000, A.D. 2027-Jul-10 00:00:00.0000, -2.586076496542543E+08, -9.489480696439113E+06, 3.544890111127421E+06,
2461603.500000000, A.D. 2027-Jul-17 00:00:00.0000, -2.599142815493339E+08, -2.593690844942368E+07, 2.873934611242111E+06,
2461610.500000000, A.D. 2027-Jul-24 00:00:00.0000, -2.605134101304705E+08, -4.231390374077512E+07, 2.195147867137274E+06,
2461617.500000000, A.D. 2027-Jul-31 00:00:00.0000, -2.604250241289274E+08, -5.857941395562195E+07, 1.510559111090153E+06,
2461624.500000000, A.D. 2027-Aug-07 00:00:00.0000, -2.596722216238064E+08, -7.469566889816333E+07, 8.221069747490771E+05,
2461631.500000000, A.D. 2027-Aug-14 00:00:00.0000, -2.582806169526407E+08, -9.062837555745345E+07, 1.316224084656686E+05,
2461638.500000000, A.D. 2027-Aug-21 00:00:00.0000, -2.562777641600969E+08, -1.063468106729136E+08, -5.591838492776975E+05,
2461645.500000000, A.D. 2027-Aug-28 00:00:00.0000, -2.536926113244478E+08, -1.218238227566791E+08, -1.248729738513477E+06,
2461652.500000000, A.D. 2027-Sep-04 00:00:00.0000, -2.505549998621952E+08, -1.370357560109405E+08, -1.935566397948049E+06,
2461659.500000000, A.D. 2027-Sep-11 00:00:00.0000, -2.468952184863769E+08, -1.519623124345196E+08, -2.618379194828443E+06,
2461666.500000000, A.D. 2027-Sep-18 00:00:00.0000, -2.427436158713269E+08, -1.665863679886694E+08, -3.295985906247079E+06,
2461673.500000000, A.D. 2027-Sep-25 00:00:00.0000, -2.381302726004542E+08, -1.808937568990990E+08, -3.967332655901588E+06,
2461680.500000000, A.D. 2027-Oct-02 00:00:00.0000, -2.330847305041738E+08, -1.948730363416003E+08, -4.631488153667510E+06,
2461687.500000000, A.D. 2027-Oct-09 00:00:00.0000, -2.276357756638180E+08, -2.085152418368106E+08, -5.287636728887394E+06,
2461694.500000000, A.D. 2027-Oct-16 00:00:00.0000, -2.218112701087156E+08, -2.218136417492290E+08, -5.935070592101946E+06,
2461701.500000000, A.D. 2027-Oct-23 00:00:00.0000, -2.156380263987949E+08, -2.347634973571290E+08, -6.573181706390902E+06,
2461708.500000000, A.D. 2027-Oct-30 00:00:00.0000, -2.091417189703074E+08, -2.473618326420213E+08, -7.201453542130977E+06,
2461715.500000000, A.D. 2027-Nov-06 00:00:00.0000, -2.023468277698160E+08, -2.596072159513601E+08, -7.819452741420209E+06,
2461722.500000000, A.D. 2027-Nov-13 00:00:00.0000, -1.952766108414643E+08, -2.714995576675068E+08, -8.426820847740039E+06,
2461729.500000000, A.D. 2027-Nov-20 00:00:00.0000, -1.879530981001427E+08, -2.830399271518989E+08, -9.023266665245712E+06,
2461736.500000000, A.D. 2027-Nov-27 00:00:00.0000, -1.803971003373242E+08, -2.942303863309448E+08, -9.608559233302802E+06,
2461743.500000000, A.D. 2027-Dec-04 00:00:00.0000, -1.726282316995730E+08, -3.050738387779573E+08, -1.018252120334485E+07,
2461750.500000000, A.D. 2027-Dec-11 00:00:00.0000, -1.646649429485472E+08, -3.155738946229866E+08, -1.074502266879375E+07,
2461757.500000000, A.D. 2027-Dec-18 00:00:00.0000, -1.565245624956017E+08, -3.257347507299045E+08, -1.129597550470567E+07,
2461764.500000000, A.D. 2027-Dec-25 00:00:00.0000, -1.482233427922601E+08, -3.355610850805258E+08, -1.183532822131445E+07,
2461771.500000000, A.D. 2028-Jan-01 00:00:00.0000, -1.397765101834526E+08, -3.450579642052059E+08, -1.236306131426269E+07,
$$EOE